[{"OBJECT_NAME":"ONEWEB-0396","OBJECT_ID":"2021-132H","EPOCH":"2026-03-09T18:27:14.776128","MEAN_MOTION":13.18686134,"ECCENTRICITY":0.0001685,"INCLINATION":87.9253,"RA_OF_ASC_NODE":355.1971,"ARG_OF_PERICENTER":76.083,"MEAN_ANOMALY":284.049,"EPHEMERIS_TYPE":0,"CLASSIFICATION_TYPE":"U","NORAD_CAT_ID":50476,"ELEMENT_SET_NO":999,"REV_AT_EPOCH":20853,"BSTAR":0.00010296459,"MEAN_MOTION_DOT":5.3e-7,"MEAN_MOTION_DDOT":0},{"OBJECT_NAME":"SCOUT A R\/B","OBJECT_ID":"1970-067B","EPOCH":"2026-03-09T22:54:58.932864","MEAN_MOTION":13.49659171,"ECCENTRICITY":0.01746933,"INCLINATION":90.0072,"RA_OF_ASC_NODE":234.1093,"ARG_OF_PERICENTER":132.7059,"MEAN_ANOMALY":341.188,"EPHEMERIS_TYPE":0,"CLASSIFICATION_TYPE":"U","NORAD_CAT_ID":4515,"ELEMENT_SET_NO":999,"REV_AT_EPOCH":73195,"BSTAR":0.00023152136,"MEAN_MOTION_DOT":1.72e-6,"MEAN_MOTION_DDOT":0}]
